ONEWEB-0125             
1 47271U 20100P   25335.64321157 -.00000377  00000+0 -10820-2 0  9992
2 47271  87.8953  29.8918 0001679 108.4530 251.6781 13.12443083238725
ONEWEB-0126             
1 47272U 20100Q   25335.66444911 -.00000005  00000+0 -49169-4 0  9997
2 47272  87.8953  29.9111 0001649  96.9191 263.2125 13.12444157238794
ONEWEB-0127             
1 47273U 20100R   25335.63024595 -.00000105  00000+0 -32637-3 0  9999
2 47273  87.8946  29.9285 0001686  94.9288 265.2033 13.12441696238813
ONEWEB-0128             
1 47274U 20100S   25335.65294882 -.00000312  00000+0 -90276-3 0  9993
2 47274  87.8945  29.9418 0001938  93.8717 266.2633 13.12443727238832
ONEWEB-0129             
1 47275U 20100T   25335.70809491 -.00000205  00000+0 -60435-3 0  9993
2 47275  87.8954  29.8829 0001400  57.9430 302.1835 13.12442239238779
ONEWEB-0130             
1 47276U 20100U   25335.65944259 -.00000193  00000+0 -57208-3 0  9990
2 47276  87.8954  29.8874 0001804  93.9810 266.1525 13.12444158238733
ONEWEB-0131             
1 47277U 20100V   25335.65619708 -.00000249  00000+0 -72777-3 0  9999
2 47277  87.8953  29.9189 0001774  99.0615 261.0714 13.12443889238777
ONEWEB-0132             
1 47278U 20100W   25335.83787499  .00000510  00000+0  13835-2 0  9991
2 47278  87.8953  29.8843 0001817  98.3690 261.7644 13.12443312238698
ONEWEB-0133             
1 47279U 20100X   25335.62524002  .00000077  00000+0  17865-3 0  9994
2 47279  87.8947  29.8887 0001918  98.5919 261.5427 13.12442421238820
ONEWEB-0134             
1 47280U 20100Y   25335.67080176  .00000153  00000+0  39121-3 0  9994
2 47280  87.8955  29.8744 0001887  91.6132 268.5212 13.12444314238809
ONEWEB-0135             
1 47281U 20100Z   25335.71781977 -.00000415  00000+0 -11887-2 0  9998
2 47281  87.8950  29.9049 0002054  90.8827 269.2537 13.12440378238830
ONEWEB-0136             
1 47282U 20100AA  25335.66106491 -.00000192  00000+0 -56932-3 0  9998
2 47282  87.8955  29.8855 0001917  86.9459 273.1889 13.12443885238755
ONEWEB-0137             
1 47283U 20100AB  25335.61888896  .00000268  00000+0  70916-3 0  9990
2 47283  87.8955  29.8995 0001567 100.7398 259.3907 13.12442459238651
ONEWEB-0138             
1 47284U 20100AC  25335.67404906  .00000264  00000+0  69796-3 0  9993
2 47284  87.8953  29.8977 0001791  93.2518 266.8816 13.12443326238745
ONEWEB-0139             
1 47285U 20100AD  25335.71310304 -.00000377  00000+0 -10843-2 0  9992
2 47285  87.8949  29.8791 0001756  99.1388 260.9939 13.12442760238827
ONEWEB-0140             
1 47286U 20100AE  25335.66756027  .00000073  00000+0  16764-3 0  9993
2 47286  87.8955  29.8751 0001821  94.9433 265.1903 13.12443570238781
ONEWEB-0141             
1 47287U 20100AF  25335.71282826 -.00000286  00000+0 -83091-3 0  9996
2 47287  87.8945  29.8759 0001405 102.9137 257.2148 13.12442610238774
