[{"OBJECT_NAME":"ONEWEB-0125","OBJECT_ID":"2020-100P","EPOCH":"2025-12-01T15:26:13.479648","MEAN_MOTION":13.12443083,"ECCENTRICITY":0.0001679,"INCLINATION":87.8953,"RA_OF_ASC_NODE":29.8918,"ARG_OF_PERICENTER":108.453,"MEAN_ANOMALY":251.6781,"EPHEMERIS_TYPE":0,"CLASSIFICATION_TYPE":"U","NORAD_CAT_ID":47271,"ELEMENT_SET_NO":999,"REV_AT_EPOCH":23872,"BSTAR":-0.001082,"MEAN_MOTION_DOT":-3.77e-6,"MEAN_MOTION_DDOT":0},{"OBJECT_NAME":"ONEWEB-0126","OBJECT_ID":"2020-100Q","EPOCH":"2025-12-01T15:56:48.403104","MEAN_MOTION":13.12444157,"ECCENTRICITY":0.0001649,"INCLINATION":87.8953,"RA_OF_ASC_NODE":29.9111,"ARG_OF_PERICENTER":96.9191,"MEAN_ANOMALY":263.2125,"EPHEMERIS_TYPE":0,"CLASSIFICATION_TYPE":"U","NORAD_CAT_ID":47272,"ELEMENT_SET_NO":999,"REV_AT_EPOCH":23879,"BSTAR":-4.9169e-5,"MEAN_MOTION_DOT":-5.0e-8,"MEAN_MOTION_DDOT":0},{"OBJECT_NAME":"ONEWEB-0127","OBJECT_ID":"2020-100R","EPOCH":"2025-12-01T15:07:33.250080","MEAN_MOTION":13.12441696,"ECCENTRICITY":0.0001686,"INCLINATION":87.8946,"RA_OF_ASC_NODE":29.9285,"ARG_OF_PERICENTER":94.9288,"MEAN_ANOMALY":265.2033,"EPHEMERIS_TYPE":0,"CLASSIFICATION_TYPE":"U","NORAD_CAT_ID":47273,"ELEMENT_SET_NO":999,"REV_AT_EPOCH":23881,"BSTAR":-0.00032637,"MEAN_MOTION_DOT":-1.05e-6,"MEAN_MOTION_DDOT":0},{"OBJECT_NAME":"ONEWEB-0128","OBJECT_ID":"2020-100S","EPOCH":"2025-12-01T15:40:14.778048","MEAN_MOTION":13.12443727,"ECCENTRICITY":0.0001938,"INCLINATION":87.8945,"RA_OF_ASC_NODE":29.9418,"ARG_OF_PERICENTER":93.8717,"MEAN_ANOMALY":266.2633,"EPHEMERIS_TYPE":0,"CLASSIFICATION_TYPE":"U","NORAD_CAT_ID":47274,"ELEMENT_SET_NO":999,"REV_AT_EPOCH":23883,"BSTAR":-0.00090276,"MEAN_MOTION_DOT":-3.12e-6,"MEAN_MOTION_DDOT":0},{"OBJECT_NAME":"ONEWEB-0129","OBJECT_ID":"2020-100T","EPOCH":"2025-12-01T16:59:39.400224","MEAN_MOTION":13.12442239,"ECCENTRICITY":0.00014,"INCLINATION":87.8954,"RA_OF_ASC_NODE":29.8829,"ARG_OF_PERICENTER":57.943,"MEAN_ANOMALY":302.1835,"EPHEMERIS_TYPE":0,"CLASSIFICATION_TYPE":"U","NORAD_CAT_ID":47275,"ELEMENT_SET_NO":999,"REV_AT_EPOCH":23877,"BSTAR":-0.00060435,"MEAN_MOTION_DOT":-2.05e-6,"MEAN_MOTION_DDOT":0},{"OBJECT_NAME":"ONEWEB-0130","OBJECT_ID":"2020-100U","EPOCH":"2025-12-01T15:49:35.839776","MEAN_MOTION":13.12444158,"ECCENTRICITY":0.0001804,"INCLINATION":87.8954,"RA_OF_ASC_NODE":29.8874,"ARG_OF_PERICENTER":93.981,"MEAN_ANOMALY":266.1525,"EPHEMERIS_TYPE":0,"CLASSIFICATION_TYPE":"U","NORAD_CAT_ID":47276,"ELEMENT_SET_NO":999,"REV_AT_EPOCH":23873,"BSTAR":-0.00057208,"MEAN_MOTION_DOT":-1.93e-6,"MEAN_MOTION_DDOT":0},{"OBJECT_NAME":"ONEWEB-0131","OBJECT_ID":"2020-100V","EPOCH":"2025-12-01T15:44:55.427712","MEAN_MOTION":13.12443889,"ECCENTRICITY":0.0001774,"INCLINATION":87.8953,"RA_OF_ASC_NODE":29.9189,"ARG_OF_PERICENTER":99.0615,"MEAN_ANOMALY":261.0714,"EPHEMERIS_TYPE":0,"CLASSIFICATION_TYPE":"U","NORAD_CAT_ID":47277,"ELEMENT_SET_NO":999,"REV_AT_EPOCH":23877,"BSTAR":-0.00072777,"MEAN_MOTION_DOT":-2.49e-6,"MEAN_MOTION_DDOT":0},{"OBJECT_NAME":"ONEWEB-0132","OBJECT_ID":"2020-100W","EPOCH":"2025-12-01T20:06:32.399136","MEAN_MOTION":13.12443312,"ECCENTRICITY":0.0001817,"INCLINATION":87.8953,"RA_OF_ASC_NODE":29.8843,"ARG_OF_PERICENTER":98.369,"MEAN_ANOMALY":261.7644,"EPHEMERIS_TYPE":0,"CLASSIFICATION_TYPE":"U","NORAD_CAT_ID":47278,"ELEMENT_SET_NO":999,"REV_AT_EPOCH":23869,"BSTAR":0.0013835,"MEAN_MOTION_DOT":5.1e-6,"MEAN_MOTION_DDOT":0},{"OBJECT_NAME":"ONEWEB-0133","OBJECT_ID":"2020-100X","EPOCH":"2025-12-01T15:00:20.737728","MEAN_MOTION":13.12442421,"ECCENTRICITY":0.0001918,"INCLINATION":87.8947,"RA_OF_ASC_NODE":29.8887,"ARG_OF_PERICENTER":98.5919,"MEAN_ANOMALY":261.5427,"EPHEMERIS_TYPE":0,"CLASSIFICATION_TYPE":"U","NORAD_CAT_ID":47279,"ELEMENT_SET_NO":999,"REV_AT_EPOCH":23882,"BSTAR":0.00017865,"MEAN_MOTION_DOT":7.7e-7,"MEAN_MOTION_DDOT":0},{"OBJECT_NAME":"ONEWEB-0134","OBJECT_ID":"2020-100Y","EPOCH":"2025-12-01T16:05:57.272064","MEAN_MOTION":13.12444314,"ECCENTRICITY":0.0001887,"INCLINATION":87.8955,"RA_OF_ASC_NODE":29.8744,"ARG_OF_PERICENTER":91.6132,"MEAN_ANOMALY":268.5212,"EPHEMERIS_TYPE":0,"CLASSIFICATION_TYPE":"U","NORAD_CAT_ID":47280,"ELEMENT_SET_NO":999,"REV_AT_EPOCH":23880,"BSTAR":0.00039121,"MEAN_MOTION_DOT":1.53e-6,"MEAN_MOTION_DDOT":0},{"OBJECT_NAME":"ONEWEB-0135","OBJECT_ID":"2020-100Z","EPOCH":"2025-12-01T17:13:39.628128","MEAN_MOTION":13.12440378,"ECCENTRICITY":0.0002054,"INCLINATION":87.895,"RA_OF_ASC_NODE":29.9049,"ARG_OF_PERICENTER":90.8827,"MEAN_ANOMALY":269.2537,"EPHEMERIS_TYPE":0,"CLASSIFICATION_TYPE":"U","NORAD_CAT_ID":47281,"ELEMENT_SET_NO":999,"REV_AT_EPOCH":23883,"BSTAR":-0.0011887,"MEAN_MOTION_DOT":-4.15e-6,"MEAN_MOTION_DDOT":0},{"OBJECT_NAME":"ONEWEB-0136","OBJECT_ID":"2020-100AA","EPOCH":"2025-12-01T15:51:56.008224","MEAN_MOTION":13.12443885,"ECCENTRICITY":0.0001917,"INCLINATION":87.8955,"RA_OF_ASC_NODE":29.8855,"ARG_OF_PERICENTER":86.9459,"MEAN_ANOMALY":273.1889,"EPHEMERIS_TYPE":0,"CLASSIFICATION_TYPE":"U","NORAD_CAT_ID":47282,"ELEMENT_SET_NO":999,"REV_AT_EPOCH":23875,"BSTAR":-0.00056932,"MEAN_MOTION_DOT":-1.92e-6,"MEAN_MOTION_DDOT":0},{"OBJECT_NAME":"ONEWEB-0137","OBJECT_ID":"2020-100AB","EPOCH":"2025-12-01T14:51:12.006144","MEAN_MOTION":13.12442459,"ECCENTRICITY":0.0001567,"INCLINATION":87.8955,"RA_OF_ASC_NODE":29.8995,"ARG_OF_PERICENTER":100.7398,"MEAN_ANOMALY":259.3907,"EPHEMERIS_TYPE":0,"CLASSIFICATION_TYPE":"U","NORAD_CAT_ID":47283,"ELEMENT_SET_NO":999,"REV_AT_EPOCH":23865,"BSTAR":0.00070916,"MEAN_MOTION_DOT":2.68e-6,"MEAN_MOTION_DDOT":0},{"OBJECT_NAME":"ONEWEB-0138","OBJECT_ID":"2020-100AC","EPOCH":"2025-12-01T16:10:37.838784","MEAN_MOTION":13.12443326,"ECCENTRICITY":0.0001791,"INCLINATION":87.8953,"RA_OF_ASC_NODE":29.8977,"ARG_OF_PERICENTER":93.2518,"MEAN_ANOMALY":266.8816,"EPHEMERIS_TYPE":0,"CLASSIFICATION_TYPE":"U","NORAD_CAT_ID":47284,"ELEMENT_SET_NO":999,"REV_AT_EPOCH":23874,"BSTAR":0.00069796,"MEAN_MOTION_DOT":2.64e-6,"MEAN_MOTION_DDOT":0},{"OBJECT_NAME":"ONEWEB-0139","OBJECT_ID":"2020-100AD","EPOCH":"2025-12-01T17:06:52.102656","MEAN_MOTION":13.1244276,"ECCENTRICITY":0.0001756,"INCLINATION":87.8949,"RA_OF_ASC_NODE":29.8791,"ARG_OF_PERICENTER":99.1388,"MEAN_ANOMALY":260.9939,"EPHEMERIS_TYPE":0,"CLASSIFICATION_TYPE":"U","NORAD_CAT_ID":47285,"ELEMENT_SET_NO":999,"REV_AT_EPOCH":23882,"BSTAR":-0.0010843,"MEAN_MOTION_DOT":-3.77e-6,"MEAN_MOTION_DDOT":0},{"OBJECT_NAME":"ONEWEB-0140","OBJECT_ID":"2020-100AE","EPOCH":"2025-12-01T16:01:17.207328","MEAN_MOTION":13.1244357,"ECCENTRICITY":0.0001821,"INCLINATION":87.8955,"RA_OF_ASC_NODE":29.8751,"ARG_OF_PERICENTER":94.9433,"MEAN_ANOMALY":265.1903,"EPHEMERIS_TYPE":0,"CLASSIFICATION_TYPE":"U","NORAD_CAT_ID":47286,"ELEMENT_SET_NO":999,"REV_AT_EPOCH":23878,"BSTAR":0.00016764,"MEAN_MOTION_DOT":7.3e-7,"MEAN_MOTION_DDOT":0},{"OBJECT_NAME":"ONEWEB-0141","OBJECT_ID":"2020-100AF","EPOCH":"2025-12-01T17:06:28.361664","MEAN_MOTION":13.1244261,"ECCENTRICITY":0.0001405,"INCLINATION":87.8945,"RA_OF_ASC_NODE":29.8759,"ARG_OF_PERICENTER":102.9137,"MEAN_ANOMALY":257.2148,"EPHEMERIS_TYPE":0,"CLASSIFICATION_TYPE":"U","NORAD_CAT_ID":47287,"ELEMENT_SET_NO":999,"REV_AT_EPOCH":23877,"BSTAR":-0.00083091,"MEAN_MOTION_DOT":-2.86e-6,"MEAN_MOTION_DDOT":0}]
